start=new Date('2021-12-20T00:00:00.000Z').valueOf();
sats=[{"TLE_LINE2":"2 48598  53.0534 218.5297 0002273  79.2769 280.8475 15.06403247 33286","TLE_LINE1":"1 48598U 21041AX  21353.89247115  .00001826  00000-0  14148-3 0  9991","SITE":"AFETR","COUNTRY_CODE":"US","BSTAR":"0.00014148000000","FILE":"3244825","RA_OF_ASC_NODE":"218.5297","ELEMENT_SET_NO":"999","MEAN_MOTION":"15.06403247","DECAY_DATE":null,"MEAN_MOTION_DOT":"0.00001826","GP_ID":"192043113","CENTER_NAME":"EARTH","PERIOD":"95.592","OBJECT_NAME":"STARLINK-2256","LAUNCH_DATE":"2021-05-15","MEAN_ELEMENT_THEORY":"SGP4","INCLINATION":"53.0534","MEAN_ANOMALY":"280.8475","APOAPSIS":"548.778","OBJECT_TYPE":"PAYLOAD","NORAD_CAT_ID":"48598","REF_FRAME":"TEME","ARG_OF_PERICENTER":"79.2769","ECCENTRICITY":"0.00022730","TIME_SYSTEM":"UTC","OBJECT_ID":"2021-041AX","RCS_SIZE":"LARGE","EPHEMERIS_TYPE":"0","REV_AT_EPOCH":"3328","EPOCH":"2021-12-19T21:25:09.507360","MEAN_MOTION_DDOT":"0.0000000000000","CLASSIFICATION_TYPE":"U","PERIAPSIS":"545.629","SEMIMAJOR_AXIS":"6925.339"},{"MEAN_ANOMALY":"279.1320","LAUNCH_DATE":"2021-05-15","INCLINATION":"53.0542","MEAN_ELEMENT_THEORY":"SGP4","NORAD_CAT_ID":"48599","REF_FRAME":"TEME","APOAPSIS":"549.101","OBJECT_TYPE":"PAYLOAD","REV_AT_EPOCH":"3444","EPHEMERIS_TYPE":"0","RCS_SIZE":"LARGE","ARG_OF_PERICENTER":"80.9974","ECCENTRICITY":"0.00026960","TIME_SYSTEM":"UTC","OBJECT_ID":"2021-041AY","SEMIMAJOR_AXIS":"6925.369","PERIAPSIS":"545.367","CLASSIFICATION_TYPE":"U","MEAN_MOTION_DDOT":"0.0000000000000","EPOCH":"2021-12-19T20:27:27.134496","TLE_LINE1":"1 48599U 21041AY  21353.85239739  .00001242  00000-0  10234-3 0  9995","TLE_LINE2":"2 48599  53.0542 193.6945 0002696  80.9974 279.1320 15.06393263 34440","BSTAR":"0.00010234000000","COUNTRY_CODE":"US","SITE":"AFETR","MEAN_MOTION":"15.06393263","ELEMENT_SET_NO":"999","FILE":"3244825","RA_OF_ASC_NODE":"193.6945","PERIOD":"95.593","OBJECT_NAME":"STARLINK-2274","CENTER_NAME":"EARTH","GP_ID":"192042911","MEAN_MOTION_DOT":"0.00001242","DECAY_DATE":null},{"TLE_LINE2":"2 48600  53.0539 208.5278 0002810  77.5504 282.5800 15.06402756 34239","TLE_LINE1":"1 48600U 21041AZ  21353.88971204 -.00000328  00000-0 -31065-5 0  9994","SITE":"AFETR","COUNTRY_CODE":"US","BSTAR":"-0.00000310650000","RA_OF_ASC_NODE":"208.5278","FILE":"3244825","ELEMENT_SET_NO":"999","MEAN_MOTION":"15.06402756","DECAY_DATE":null,"MEAN_MOTION_DOT":"-0.00000328","GP_ID":"192041899","CENTER_NAME":"EARTH","OBJECT_NAME":"STARLINK-2275","PERIOD":"95.592","INCLINATION":"53.0539","LAUNCH_DATE":"2021-05-15","MEAN_ELEMENT_THEORY":"SGP4","MEAN_ANOMALY":"282.5800","OBJECT_TYPE":"PAYLOAD","APOAPSIS":"549.151","REF_FRAME":"TEME","NORAD_CAT_ID":"48600","ECCENTRICITY":"0.00028100","OBJECT_ID":"2021-041AZ","TIME_SYSTEM":"UTC","ARG_OF_PERICENTER":"77.5504","RCS_SIZE":"LARGE","EPHEMERIS_TYPE":"0","REV_AT_EPOCH":"3423","EPOCH":"2021-12-19T21:21:11.120256","MEAN_MOTION_DDOT":"0.0000000000000","PERIAPSIS":"545.259","CLASSIFICATION_TYPE":"U","SEMIMAJOR_AXIS":"6925.340"},{"SITE":"AFETR","COUNTRY_CODE":"US","BSTAR":"0.00011446000000","TLE_LINE2":"2 48602  53.0505 193.5693 0002158  85.9982 274.1254 15.06407060 34431","TLE_LINE1":"1 48602U 21041BB  21353.88556085  .00001424  00000-0  11446-3 0  9997","DECAY_DATE":null,"MEAN_MOTION_DOT":"0.00001424","OBJECT_NAME":"STARLINK-2713","PERIOD":"95.592","GP_ID":"192042101","CENTER_NAME":"EARTH","RA_OF_ASC_NODE":"193.5693","FILE":"3244825","MEAN_MOTION":"15.06407060","ELEMENT_SET_NO":"999","OBJECT_TYPE":"PAYLOAD","APOAPSIS":"548.686","REF_FRAME":"TEME","NORAD_CAT_ID":"48602","LAUNCH_DATE":"2021-05-15","MEAN_ELEMENT_THEORY":"SGP4","INCLINATION":"53.0505","MEAN_ANOMALY":"274.1254","MEAN_MOTION_DDOT":"0.0000000000000","EPOCH":"2021-12-19T21:15:12.457440","SEMIMAJOR_AXIS":"6925.327","PERIAPSIS":"545.697","CLASSIFICATION_TYPE":"U","RCS_SIZE":"LARGE","OBJECT_ID":"2021-041BB","ECCENTRICITY":"0.00021580","TIME_SYSTEM":"UTC","ARG_OF_PERICENTER":"85.9982","REV_AT_EPOCH":"3443","EPHEMERIS_TYPE":"0"},{"SITE":"AFETR","BSTAR":"0.00009625100000","COUNTRY_CODE":"US","TLE_LINE2":"2 48603  53.0523 188.6526 0002842  88.8618 271.2696 15.06397111 34512","TLE_LINE1":"1 48603U 21041BC  21353.86480819  .00001152  00000-0  96251-4 0  9993","MEAN_MOTION_DOT":"0.00001152","DECAY_DATE":null,"PERIOD":"95.592","OBJECT_NAME":"STARLINK-2714","GP_ID":"192042709","CENTER_NAME":"EARTH","FILE":"3244825","RA_OF_ASC_NODE":"188.6526","MEAN_MOTION":"15.06397111","ELEMENT_SET_NO":"999","APOAPSIS":"549.191","OBJECT_TYPE":"PAYLOAD","NORAD_CAT_ID":"48603","REF_FRAME":"TEME","LAUNCH_DATE":"2021-05-15","MEAN_ELEMENT_THEORY":"SGP4","INCLINATION":"53.0523","MEAN_ANOMALY":"271.2696","MEAN_MOTION_DDOT":"0.0000000000000","EPOCH":"2021-12-19T20:45:19.427616","SEMIMAJOR_AXIS":"6925.357","PERIAPSIS":"545.254","CLASSIFICATION_TYPE":"U","RCS_SIZE":"LARGE","TIME_SYSTEM":"UTC","OBJECT_ID":"2021-041BC","ECCENTRICITY":"0.00028420","ARG_OF_PERICENTER":"88.8618","REV_AT_EPOCH":"3451","EPHEMERIS_TYPE":"0"},{"DECAY_DATE":null,"MEAN_MOTION_DOT":"0.00009110","OBJECT_NAME":"STARLINK-2757","PERIOD":"95.594","GP_ID":"192043316","CENTER_NAME":"EARTH","RA_OF_ASC_NODE":"218.6413","FILE":"3244825","MEAN_MOTION":"15.06364829","ELEMENT_SET_NO":"999","SITE":"AFETR","BSTAR":"0.00063028000000","COUNTRY_CODE":"US","TLE_LINE2":"2 48604  53.0549 218.6413 0002787  76.1224 284.0075 15.06364829 34097","TLE_LINE1":"1 48604U 21041BD  21353.86668453  .00009110  00000-0  63028-3 0  9993","MEAN_MOTION_DDOT":"0.0000000000000","EPOCH":"2021-12-19T20:48:01.543392","SEMIMAJOR_AXIS":"6925.456","CLASSIFICATION_TYPE":"U","PERIAPSIS":"545.391","RCS_SIZE":"LARGE","ECCENTRICITY":"0.00027870","TIME_SYSTEM":"UTC","OBJECT_ID":"2021-041BD","ARG_OF_PERICENTER":"76.1224","REV_AT_EPOCH":"3409","EPHEMERIS_TYPE":"0","OBJECT_TYPE":"PAYLOAD","APOAPSIS":"549.251","REF_FRAME":"TEME","NORAD_CAT_ID":"48604","INCLINATION":"53.0549","LAUNCH_DATE":"2021-05-15","MEAN_ELEMENT_THEORY":"SGP4","MEAN_ANOMALY":"284.0075"},{"TLE_LINE1":"1 48638U 21044A   21353.88463231  .00001094  00000-0  92381-4 0  9990","TLE_LINE2":"2 48638  53.0552 193.5548 0002850  80.2855 279.8455 15.06391538 31543","COUNTRY_CODE":"US","BSTAR":"0.00009238100000","SITE":"AFETR","ELEMENT_SET_NO":"999","MEAN_MOTION":"15.06391538","RA_OF_ASC_NODE":"193.5548","FILE":"3244825","CENTER_NAME":"EARTH","GP_ID":"192042511","OBJECT_NAME":"STARLINK-2758","PERIOD":"95.593","DECAY_DATE":null,"MEAN_MOTION_DOT":"0.00001094","MEAN_ANOMALY":"279.8455","MEAN_ELEMENT_THEORY":"SGP4","LAUNCH_DATE":"2021-05-26","INCLINATION":"53.0552","REF_FRAME":"TEME","NORAD_CAT_ID":"48638","OBJECT_TYPE":"PAYLOAD","APOAPSIS":"549.213","EPHEMERIS_TYPE":"0","REV_AT_EPOCH":"3154","ARG_OF_PERICENTER":"80.2855","ECCENTRICITY":"0.00028500","TIME_SYSTEM":"UTC","OBJECT_ID":"2021-044A","RCS_SIZE":"LARGE","CLASSIFICATION_TYPE":"U","PERIAPSIS":"545.266","SEMIMAJOR_AXIS":"6925.374","EPOCH":"2021-12-19T21:13:52.231584","MEAN_MOTION_DDOT":"0.0000000000000"},{"RCS_SIZE":"LARGE","TIME_SYSTEM":"UTC","OBJECT_ID":"2021-044B","ECCENTRICITY":"0.00024640","ARG_OF_PERICENTER":"82.9187","REV_AT_EPOCH":"3154","EPHEMERIS_TYPE":"0","MEAN_MOTION_DDOT":"0.0000000000000","EPOCH":"2021-12-19T20:52:38.509824","SEMIMAJOR_AXIS":"6925.348","PERIAPSIS":"545.507","CLASSIFICATION_TYPE":"U","LAUNCH_DATE":"2021-05-26","MEAN_ELEMENT_THEORY":"SGP4","INCLINATION":"53.0553","MEAN_ANOMALY":"277.2082","OBJECT_TYPE":"PAYLOAD","APOAPSIS":"548.919","REF_FRAME":"TEME","NORAD_CAT_ID":"48639","RA_OF_ASC_NODE":"193.6111","FILE":"3244825","MEAN_MOTION":"15.06400202","ELEMENT_SET_NO":"999","MEAN_MOTION_DOT":"-0.00000159","DECAY_DATE":null,"OBJECT_NAME":"STARLINK-2739","PERIOD":"95.592","CENTER_NAME":"EARTH","GP_ID":"192043118","TLE_LINE2":"2 48639  53.0553 193.6111 0002464  82.9187 277.2082 15.06400202 31547","TLE_LINE1":"1 48639U 21044B   21353.86989016 -.00000159  00000-0  82683-5 0  9990","SITE":"AFETR","BSTAR":"0.00000826830000","COUNTRY_CODE":"US"},{"NORAD_CAT_ID":"48640","REF_FRAME":"TEME","APOAPSIS":"549.068","OBJECT_TYPE":"PAYLOAD","MEAN_ANOMALY":"282.6686","MEAN_ELEMENT_THEORY":"SGP4","LAUNCH_DATE":"2021-05-26","INCLINATION":"53.0556","SEMIMAJOR_AXIS":"6925.362","PERIAPSIS":"545.385","CLASSIFICATION_TYPE":"U","MEAN_MOTION_DDOT":"0.0000000000000","EPOCH":"2021-12-19T20:04:51.729312","REV_AT_EPOCH":"3153","EPHEMERIS_TYPE":"0","RCS_SIZE":"LARGE","ECCENTRICITY":"0.00026590","ARG_OF_PERICENTER":"77.4600","TIME_SYSTEM":"UTC","OBJECT_ID":"2021-044C","BSTAR":"0.00009145400000","COUNTRY_CODE":"US","SITE":"AFETR","TLE_LINE1":"1 48640U 21044C   21353.83670983  .00001080  00000-0  91454-4 0  9997","TLE_LINE2":"2 48640  53.0556 193.7733 0002659  77.4600 282.6686 15.06395750 31538","PERIOD":"95.592","OBJECT_NAME":"STARLINK-2736","GP_ID":"192042916","CENTER_NAME":"EARTH","DECAY_DATE":null,"MEAN_MOTION_DOT":"0.00001080","MEAN_MOTION":"15.06395750","ELEMENT_SET_NO":"999","FILE":"3244825","RA_OF_ASC_NODE":"193.7733"},{"PERIOD":"95.592","OBJECT_NAME":"STARLINK-2754","CENTER_NAME":"EARTH","GP_ID":"192041904","MEAN_MOTION_DOT":"0.00002079","DECAY_DATE":null,"MEAN_MOTION":"15.06401412","ELEMENT_SET_NO":"999","FILE":"3244825","RA_OF_ASC_NODE":"198.5985","COUNTRY_CODE":"US","BSTAR":"0.00015847000000","SITE":"AFETR","TLE_LINE1":"1 48641U 21044D   21353.87588800  .00002079  00000-0  15847-3 0  9998","TLE_LINE2":"2 48641  53.0548 198.5985 0002491  82.7550 277.3722 15.06401412 31477","SEMIMAJOR_AXIS":"6925.344","PERIAPSIS":"545.484","CLASSIFICATION_TYPE":"U","MEAN_MOTION_DDOT":"0.0000000000000","EPOCH":"2021-12-19T21:01:16.723200","REV_AT_EPOCH":"3147","EPHEMERIS_TYPE":"0","RCS_SIZE":"LARGE","OBJECT_ID":"2021-044D","TIME_SYSTEM":"UTC","ARG_OF_PERICENTER":"82.7550","ECCENTRICITY":"0.00024910","NORAD_CAT_ID":"48641","REF_FRAME":"TEME","APOAPSIS":"548.934","OBJECT_TYPE":"PAYLOAD","MEAN_ANOMALY":"277.3722","MEAN_ELEMENT_THEORY":"SGP4","LAUNCH_DATE":"2021-05-26","INCLINATION":"53.0548"}];
